[{"OBJECT_NAME":"YAOGAN-43 01J","OBJECT_ID":"2024-148J","EPOCH":"2026-03-09T23:54:35.791776","MEAN_MOTION":15.33667219,"ECCENTRICITY":0.00056275,"INCLINATION":34.9924,"RA_OF_ASC_NODE":49.1806,"ARG_OF_PERICENTER":63.4278,"MEAN_ANOMALY":296.7016,"EPHEMERIS_TYPE":0,"CLASSIFICATION_TYPE":"U","NORAD_CAT_ID":60466,"ELEMENT_SET_NO":999,"REV_AT_EPOCH":8718,"BSTAR":0.00053111003,"MEAN_MOTION_DOT":0.0001776,"MEAN_MOTION_DDOT":0},{"OBJECT_NAME":"OBJECT B","OBJECT_ID":"2021-015B","EPOCH":"2026-03-09T15:14:34.210752","MEAN_MOTION":15.41258714,"ECCENTRICITY":0.0021689,"INCLINATION":97.1346,"RA_OF_ASC_NODE":105.7301,"ARG_OF_PERICENTER":273.1755,"MEAN_ANOMALY":86.7011,"EPHEMERIS_TYPE":0,"CLASSIFICATION_TYPE":"U","NORAD_CAT_ID":47700,"ELEMENT_SET_NO":999,"REV_AT_EPOCH":27907,"BSTAR":0.00033462,"MEAN_MOTION_DOT":0.00013956,"MEAN_MOTION_DDOT":0}]
